     2.10           N: GPS NAV DATA                         RINEX VERSION / TYPE
Convert             CompanyName         03-Jul-04 06:20     PGM / RUN BY / DATE 
    0.4657D-08  0.1490D-07 -0.5960D-07 -0.1192D-06          ION ALPHA           
    0.8192D+05  0.8192D+05 -0.6554D+05 -0.5243D+06          ION BETA            
     .000000000000D+00 -.355271367880D-14   147456     1278 DELTA-UTC: A0,A1,T,W
    13                                                      LEAP SECONDS        
                                                            END OF HEADER       
26 04 07 03 08 00 00.0  .142083968967D-03  .147792889038D-10  .000000000000D+00
     .860000000000D+02 -.124468750000D+03  .389301930274D-08  .281326767130D+01
    -.653043389320D-05  .155590159120D-01  .519677996635D-06  .515368342400D+04
     .547200000000D+06 -.558793544769D-07  .237595531697D+01 -.109896063805D-06
     .982334079849D+00  .384343750000D+03  .608326638081D+00 -.799426156451D-08
    -.212151694112D-09  .100000000000D+01  .127700000000D+04  .000000000000D+00
     .000000000000D+00  .000000000000D+00 -.651925802231D-08  .854000000000D+03
     .541086000000D+06  .000000000000D+00                                      
 9 04 07 03 07 59 44.0 -.522593036294D-04 -.181898940355D-11  .000000000000D+00
     .970000000000D+02 -.118875000000D+03  .438125392538D-08  .960675636202D+00
    -.626407563686D-05  .157825407805D-01  .110175460577D-04  .515370823479D+04
     .547184000000D+06 -.212341547012D-06 -.290668563046D+01  .800937414169D-07
     .952590327896D+00  .166531250000D+03  .105567373415D+01 -.807283626603D-08
     .228223792151D-09  .100000000000D+01  .127700000000D+04  .000000000000D+00
     .000000000000D+00  .000000000000D+00 -.558793544769D-08  .970000000000D+02
     .541086000000D+06  .000000000000D+00                                      
18 04 07 03 08 00 00.0 -.503845512867D-04 -.386535248253D-11  .000000000000D+00
     .236000000000D+03  .116562500000D+03  .454840374499D-08 -.152749777864D+00
     .589340925217D-05  .498353550211D-02  .190176069736D-05  .515367169571D+04
     .547200000000D+06  .633299350739D-07  .136193259702D+01  .633299350739D-07
     .963519907363D+00  .343843750000D+03 -.294829011509D+01 -.842356516101D-08
     .842892252703D-10  .100000000000D+01  .127700000000D+04  .000000000000D+00
     .000000000000D+00  .000000000000D+00 -.102445483208D-07  .236000000000D+03
     .541086000000D+06  .000000000000D+00                                      
21 04 07 03 08 00 00.0  .770548358560D-04  .341060513165D-12  .000000000000D+00
     .240000000000D+02  .101343750000D+03  .440339770490D-08  .115373834538D+01
     .550039112568D-05  .893285777420D-02  .108387321234D-04  .515369019318D+04
     .547200000000D+06  .484287738800D-07  .316492456141D+00  .156462192535D-06
     .953198871096D+00  .160343750000D+03  .302410890936D+01 -.782389732530D-08
    -.540022494104D-09  .100000000000D+01  .127700000000D+04  .000000000000D+00
     .000000000000D+00  .000000000000D+00 -.121071934700D-07  .240000000000D+02
     .541086000000D+06  .000000000000D+00                                      
29 04 07 03 08 00 00.0  .393071211874D-03 -.557065504836D-11  .000000000000D+00
     .610000000000D+02 -.111343750000D+03  .415160150230D-08 -.129597014016D+01
    -.555440783501D-05  .817426166032D-02  .927597284317D-06  .515372682381D+04
     .547200000000D+06 -.987201929092D-07  .234330819343D+01  .193715095520D-06
     .979247577249D+00  .374875000000D+03 -.134743329117D+01 -.835641950699D-08
    -.157149403046D-09  .100000000000D+01  .127700000000D+04  .000000000000D+00
     .000000000000D+00  .000000000000D+00 -.698491930962D-08  .610000000000D+02
     .541086000000D+06  .000000000000D+00                                      
15 04 07 03 08 00 00.0  .287904404104D-03  .500222085975D-11  .000000000000D+00
     .164000000000D+03  .102000000000D+03  .407409827397D-08  .115909888245D+01
     .503845512867D-05  .884648924693D-02  .109914690256D-04  .515367503548D+04
     .547200000000D+06  .147148966789D-06  .344651992162D+00 -.130385160446D-06
     .966624452131D+00  .164812500000D+03  .226751348318D+01 -.769353475232D-08
    -.408945605655D-09  .100000000000D+01  .127700000000D+04  .000000000000D+00
     .100000000000D+01  .000000000000D+00 -.279396772385D-08  .164000000000D+03
     .541086000000D+06  .000000000000D+00                                      
 5 04 07 03 08 00 00.0  .375392846763D-04  .170530256582D-11  .000000000000D+00
     .158000000000D+03  .865625000000D+01  .547594238069D-08  .434212635728D-01
     .420957803726D-06  .532878853846D-02  .781379640102D-05  .515373945618D+04
     .547200000000D+06  .242143869400D-07 -.189889164558D+01  .316649675369D-07
     .935690310571D+00  .221062500000D+03  .840389022856D+00 -.833606151614D-08
     .685028534188D-09  .100000000000D+01  .127700000000D+04  .000000000000D+00
     .100000000000D+01  .000000000000D+00 -.419095158577D-08  .414000000000D+03
     .541086000000D+06  .000000000000D+00                                      
10 04 07 03 06 00 00.0  .465847551823D-04  .568434188608D-12  .000000000000D+00
     .149000000000D+03  .131750000000D+03  .405195449445D-08 -.287492137798D+01
     .678375363350D-05  .605501176324D-02  .188499689102D-05  .515374281502D+04
     .540000000000D+06 -.651925802231D-07  .132990242700D+01 -.447034835815D-07
     .979835910236D+00  .354562500000D+03  .321545830154D+00 -.809069415274D-08
     .277868717205D-09  .100000000000D+01  .127700000000D+04  .000000000000D+00
     .100000000000D+01  .000000000000D+00 -.232830643654D-08  .149000000000D+03
     .539376000000D+06  .000000000000D+00                                      
17 04 07 03 06 00 00.0 -.730250030756D-04 -.169393388205D-10  .000000000000D+00
     .520000000000D+02  .124562500000D+03  .396337937637D-08  .905316503209D+00
     .679865479469D-05  .169907814125D-01  .110957771540D-04  .515364388847D+04
     .540000000000D+06 -.130385160446D-06  .386436496174D+00  .340864062309D-06
     .968611290914D+00  .169656250000D+03 -.277160340891D+01 -.773246494535D-08
    -.545379860117D-09  .100000000000D+01  .127700000000D+04  .000000000000D+00
     .000000000000D+00  .000000000000D+00 -.139698386192D-08  .520000000000D+02
     .536376000000D+06  .000000000000D+00                                      
28 04 07 03 06 00 00.0  .364496372640D-04  .102318153949D-11  .000000000000D+00
     .119000000000D+03  .800000000000D+01  .495699219291D-08 -.229877703439D+01
     .296160578728D-06  .902737258002D-02  .713393092155D-05  .515368908501D+04
     .540000000000D+06  .217929482460D-06 -.181524265105D+01 -.726431608200D-07
     .958718730186D+00  .239281250000D+03 -.237223264542D+01 -.792211570220D-08
     .722530096279D-09  .100000000000D+01  .127700000000D+04  .000000000000D+00
     .100000000000D+01  .000000000000D+00 -.102445483208D-07  .375000000000D+03
     .539106000000D+06  .000000000000D+00                                      
22 04 07 03 08 00 00.0  .143377110362D-04  .170530256582D-11  .000000000000D+00
     .209000000000D+03  .115656250000D+03  .443054169270D-08 -.217179433047D+01
     .592879951000D-05  .479472824372D-02  .157952308655D-05  .515367893028D+04
     .547200000000D+06  .106170773506D-06  .137169104181D+01  .502914190292D-07
     .960884390223D+00  .351437500000D+03 -.145345364737D+01 -.822855703814D-08
     .778603860547D-10  .100000000000D+01  .127700000000D+04  .000000000000D+00
     .000000000000D+00  .000000000000D+00 -.181607902050D-07  .721000000000D+03
     .541086000000D+06  .000000000000D+00                                      
30 04 07 03 08 00 00.0  .553400721401D-03  .238742359215D-11  .000000000000D+00
     .138000000000D+03  .132812500000D+02  .531772150445D-08 -.952814132419D+00
     .875443220139D-06  .741481967270D-02  .750087201595D-05  .515363211441D+04
     .547200000000D+06 -.316649675369D-07 -.185728952064D+01  .108033418655D-06
     .942541035977D+00  .229656250000D+03  .126486572372D+01 -.826605860023D-08
     .678599694973D-09  .100000000000D+01  .127700000000D+04  .000000000000D+00
     .000000000000D+00  .000000000000D+00 -.838190317154D-08  .650000000000D+03
     .541086000000D+06  .000000000000D+00                                      
14 04 07 03 08 00 00.0 -.225882977247D-04 -.682121026330D-12  .000000000000D+00
     .290000000000D+02 -.110500000000D+03  .397409410840D-08  .310143419180D+01
    -.566989183426D-05  .130798248574D-02  .161305069923D-05  .515362332344D+04
     .547200000000D+06 -.633299350739D-07  .236393067456D+01 -.279396772385D-07
     .978414037249D+00  .358750000000D+03 -.158223699717D+01 -.803747765035D-08
    -.183221917643D-09  .100000000000D+01  .127700000000D+04  .000000000000D+00
     .000000000000D+00  .000000000000D+00 -.102445483208D-07  .541000000000D+03
     .541086000000D+06  .000000000000D+00                                      
